{
  "norad_id": 53258,
  "name": "STARLINK-4127",
  "history": [
    {
      "epoch": "2026-04-14T12:33:44.171424Z",
      "apogee_km": 540.8018938424184,
      "perigee_km": 538.6848840857883,
      "latitude_deg": 5.209933492057385e-05,
      "longitude_deg": 2.1241641786052923,
      "height_km": 540.6028532191891,
      "semi_major_axis_km": 6917.880388964103,
      "eccentricity": 0.00015301,
      "inclination_deg": 53.2171,
      "raan_deg": 33.2568,
      "arg_perigee_deg": 88.0528,
      "mean_anomaly_deg": 272.064,
      "mean_motion_rev_day": 15.0884
    },
    {
      "epoch": "2026-04-15T12:24:31.078368Z",
      "apogee_km": 540.8338640657475,
      "perigee_km": 538.6436645987606,
      "latitude_deg": -4.006613209187327e-05,
      "longitude_deg": -1.010983526325346,
      "height_km": 540.6173764728884,
      "semi_major_axis_km": 6917.875764332253,
      "eccentricity": 0.0001583,
      "inclination_deg": 53.2168,
      "raan_deg": 28.7965,
      "arg_perigee_deg": 89.1249,
      "mean_anomaly_deg": 270.9924,
      "mean_motion_rev_day": 15.08841513
    },
    {
      "epoch": "2026-04-16T18:36:50.086080Z",
      "apogee_km": 540.77481210508,
      "perigee_km": 538.6869995710995,
      "latitude_deg": 7.675474497176016e-06,
      "longitude_deg": -100.98163116289412,
      "height_km": 540.6703268081824,
      "semi_major_axis_km": 6917.867905838089,
      "eccentricity": 0.0001509,
      "inclination_deg": 53.217,
      "raan_deg": 23.1455,
      "arg_perigee_deg": 92.4137,
      "mean_anomaly_deg": 267.7028,
      "mean_motion_rev_day": 15.08844084
    },
    {
      "epoch": "2026-04-17T23:13:47.353152Z",
      "apogee_km": 540.8917396746019,
      "perigee_km": 538.6521358350938,
      "latitude_deg": 4.3387006112671435e-05,
      "longitude_deg": -176.74952943024192,
      "height_km": 541.1265377618072,
      "semi_major_axis_km": 6917.908937754848,
      "eccentricity": 0.00016187,
      "inclination_deg": 53.2188,
      "raan_deg": 17.7914,
      "arg_perigee_deg": 114.194,
      "mean_anomaly_deg": 245.9222,
      "mean_motion_rev_day": 15.0883066
    },
    {
      "epoch": "2026-04-18T10:21:29.618784Z",
      "apogee_km": 540.526555732059,
      "perigee_km": 538.9496952759528,
      "latitude_deg": 3.97748387770763e-05,
      "longitude_deg": 13.786833675761848,
      "height_km": 540.5263890596592,
      "semi_major_axis_km": 6917.875125504006,
      "eccentricity": 0.00011397,
      "inclination_deg": 53.22,
      "raan_deg": 15.7109,
      "arg_perigee_deg": 82.1244,
      "mean_anomaly_deg": 277.9878,
      "mean_motion_rev_day": 15.08841722
    },
    {
      "epoch": "2026-04-19T10:12:16.149024Z",
      "apogee_km": 540.6435085937255,
      "perigee_km": 538.8191283607766,
      "latitude_deg": 6.856882609227744e-05,
      "longitude_deg": 10.654647513501294,
      "height_km": 540.5966499945803,
      "semi_major_axis_km": 6917.868318477251,
      "eccentricity": 0.00013186,
      "inclination_deg": 53.218,
      "raan_deg": 11.2519,
      "arg_perigee_deg": 88.0846,
      "mean_anomaly_deg": 272.0298,
      "mean_motion_rev_day": 15.08843949
    },
    {
      "epoch": "2026-04-20T10:03:03.774816Z",
      "apogee_km": 540.3089746450923,
      "perigee_km": 539.2318564604893,
      "latitude_deg": -2.756946557853422e-05,
      "longitude_deg": 7.515890054956955,
      "height_km": 540.6803489443157,
      "semi_major_axis_km": 6917.907415552791,
      "eccentricity": 7.785e-05,
      "inclination_deg": 53.2196,
      "raan_deg": 6.791,
      "arg_perigee_deg": 91.4055,
      "mean_anomaly_deg": 268.7026,
      "mean_motion_rev_day": 15.08831158
    },
    {
      "epoch": "2026-04-21T09:53:50.966880Z",
      "apogee_km": 540.7005142089592,
      "perigee_km": 538.7960203948705,
      "latitude_deg": 1.9255351531759144e-05,
      "longitude_deg": 4.380850319498254,
      "height_km": 540.6088887277552,
      "semi_major_axis_km": 6917.885267301915,
      "eccentricity": 0.00013765,
      "inclination_deg": 53.2183,
      "raan_deg": 2.3319,
      "arg_perigee_deg": 87.8842,
      "mean_anomaly_deg": 272.2308,
      "mean_motion_rev_day": 15.08838404
    },
    {
      "epoch": "2026-04-22T01:47:42.040896Z",
      "apogee_km": 540.7036977998923,
      "perigee_km": 538.7635118100698,
      "latitude_deg": 2.6400319511936245e-05,
      "longitude_deg": 122.29165754157528,
      "height_km": 540.5873654852185,
      "semi_major_axis_km": 6917.870604804981,
      "eccentricity": 0.00014023,
      "inclination_deg": 53.2181,
      "raan_deg": 359.3584,
      "arg_perigee_deg": 87.5209,
      "mean_anomaly_deg": 272.5944,
      "mean_motion_rev_day": 15.08843201
    },
    {
      "epoch": "2026-04-23T01:38:29.702976Z",
      "apogee_km": 540.7374982208012,
      "perigee_km": 538.7661766176898,
      "latitude_deg": 4.742450145566347e-05,
      "longitude_deg": 119.15063485670589,
      "height_km": 540.6606382951388,
      "semi_major_axis_km": 6917.888837419245,
      "eccentricity": 0.00014248,
      "inclination_deg": 53.2191,
      "raan_deg": 354.8953,
      "arg_perigee_deg": 90.7564,
      "mean_anomaly_deg": 269.3592,
      "mean_motion_rev_day": 15.08837236
    },
    {
      "epoch": "2026-04-24T18:58:30.940032Z",
      "apogee_km": 540.6390438778471,
      "perigee_km": 538.8514631035459,
      "latitude_deg": 2.2056904709865567e-05,
      "longitude_deg": -150.2797545652202,
      "height_km": 540.4800590828278,
      "semi_major_axis_km": 6917.882253490697,
      "eccentricity": 0.0001292,
      "inclination_deg": 53.2181,
      "raan_deg": 347.1676,
      "arg_perigee_deg": 79.6162,
      "mean_anomaly_deg": 280.4976,
      "mean_motion_rev_day": 15.0883939
    }
  ]
}